H-2A R/B                
1 28932U 06002B   26165.41792300  .00006154  00000+0  29693-3 0  9995
2 28932  98.2554 320.9963 0049532 271.9859  87.5700 15.18031032109107
RESURS-DK 1             
1 29228U 06021A   26165.52343166  .00002421  00000+0  14203-3 0  9993
2 29228  69.9339 346.4480 0006829 293.8044  66.2406 15.13208440102171
CZ-4B R/B               
1 29507U 06046C   26165.54981874  .00003796  00000+0  18917-3 0  9998
2 29507  97.5454 210.1648 0031067 292.3502  67.4440 15.17766648 74738
CZ-2C R/B               
1 31114U 07010B   26165.59423035  .00000062  00000+0  47362-4 0  9992
2 31114  98.4096 274.0720 0059177  13.6560 346.6202 14.20275683993473
COSMO-SKYMED 1          
1 31598U 07023A   26165.66202428  .00002403  00000+0  21355-3 0  9995
2 31598  97.8840 357.4968 0001111  97.9359 262.1988 14.97088321 29417
COSMOS 2428             
1 31792U 07029A   26165.59503310 -.00000130  00000+0 -44012-4 0  9996
2 31792  70.9370 359.9205 0007148 139.8990 220.2660 14.12928550977785
SL-16 R/B               
1 31793U 07029B   26165.56453749  .00000202  00000+0  12941-3 0  9997
2 31793  70.9767 328.7416 0002276 261.3960 161.0882 14.14854001979072
KORONAS-FOTON           
1 33504U 09003A   26165.48897680  .00010041  00000+0  20687-3 0  9998
2 33504  82.4280 175.0740 0011395 156.3350 203.8425 15.45677403960682
CZ-2C R/B               
1 37731U 11030B   26165.48432065  .00001160  00000+0  15136-3 0  9994
2 37731  97.8654 120.9192 0053257  36.6388  77.5190 14.81465382804421
H-2A R/B                
1 38341U 12025E   26165.48100278  .00003301  00000+0  29708-3 0  9994
2 38341  98.4824 140.4035 0043809 358.2410   1.8647 14.95705694762685
SHIJIAN-16 (SJ-16)      
1 39358U 13057A   26165.62533063  .00000855  00000+0  85753-4 0  9991
2 39358  74.9729   1.5363 0016825 236.8648 123.0926 14.92601578685965
SL-4 R/B                
1 39679U 14021B   26165.40659891  .00009592  00000+0  20017-3 0  9991
2 39679  51.6048 224.3944 0091355  95.8219 265.3189 15.41905430671184
ALOS-2                  
1 39766U 14029A   26165.56911435  .00002060  00000+0  28258-3 0  9996
2 39766  97.9220 262.7699 0001630  90.8577 269.2821 14.79482290651197
YAOGAN-29               
1 41038U 15069A   26165.61402383  .00000102  00000+0  19232-4 0  9997
2 41038  98.0029 194.2426 0002730  57.5025 302.6452 14.83082261570245
ASTRO-H (HITOMI)        
1 41337U 16012A   26165.12670856  .00002474  00000+0  14075-3 0  9999
2 41337  30.9991  93.9524 0009751 223.3647 136.6224 15.10498939566822
HXMT (HUIYAN)           
1 42758U 17034A   26165.56897872  .00003135  00000+0  15926-3 0  9990
2 42758  43.0126 197.6204 0030330 130.0289 230.3228 15.18464729497260
SAOCOM 1A               
1 43641U 18076A   26165.57062286  .00000401  00000+0  56904-4 0  9998
2 43641  97.8879 352.3576 0001601  79.1893 280.9500 14.82147688415715
H-2A R/B                
1 43682U 18084L   26165.60257383  .00018767  00000+0  39496-3 0  9990
2 43682  98.8586  43.9283 0023735  49.2225 311.1073 15.45068225420721
SAOCOM 1B               
1 46265U 20059A   26165.12927613  .00000270  00000+0  40500-4 0  9991
2 46265  97.8882 351.0173 0001454  80.9112 279.2265 14.82167626313038
CSS (TIANHE)            
1 48274U 21035A   26165.60947823  .00020829  00000+0  24676-3 0  9993
2 48274  41.4694 337.6883 0007667  56.3828 303.7742 15.60706958292760
COSMOS 2550             
1 48865U 21056A   26165.61140115  .00002661  00000+0  86685-4 0  9995
2 48865  67.1429 107.6973 0008408 268.5121  91.5070 15.33827968278326
CZ-2C R/B               
1 52794U 22058K   26165.49093166  .00034810  00000+0  38947-3 0  9991
2 52794  50.1837 177.5461 0032627 256.8590 102.8742 15.61678170225228
CZ-2C R/B               
1 54039U 22132E   26165.54150182  .00052534  00000+0  41201-3 0  9996
2 54039  97.2891 172.4483 0016400  92.3352 267.9789 15.71227680205535
GSLV R/B                
1 54149U 22138AN  26165.44439406  .00002646  00000+0  22507-3 0  9999
2 54149  87.3799 133.9050 0022450 152.9188 207.3220 14.97244885198406
XRISM                   
1 57800U 23137A   26165.28685809  .00004699  00000+0  25810-3 0  9998
2 57800  31.0031  18.3881 0007974 295.0173  64.9638 15.12442568152421
ACS3                    
1 59588U 24077B   26165.47781576  .00008710  00000+0  64937-2 0  9996
2 59588  97.1679  84.8690 0068433  65.8786 294.9518 13.93844868107667
CZ-8A R/B               
1 66004U 25231K   26164.90771125 -.00000054  00000+0  38923-4 0  9998
2 66004  50.0054  53.2684 0116473 212.4566 146.9149 14.30154115 34475
SZ-21 MODULE            
1 66515U 25246C   26164.73115900  .00045764  00000+0  28446-3 0  9999
2 66515  41.4731 328.8460 0006751 328.3391  31.7047 15.76117488 33190
